[
    {
        "Altitude(m)": 612502.198288582,
        "Argument of Periapsis(deg)": 0.0,
        "Eccentricity": 0.0,
        "Inclination(deg)": 60.0,
        "Latitude(deg)": -28.13598505355685,
        "Longitude(deg)": 47.148290045943135,
        "Mean Anomaly(deg)": -32.727300000000035,
        "RAAN(deg)": 165.0,
        "Satellite Name": "Test1 746",
        "Satellite Number": 746,
        "Semi-Major Axis(m)": 6980739.136638005,
        "Time(s)": 0
    },
    {
        "Altitude(m)": 612308.6459876313,
        "Argument of Periapsis(deg)": 0.00010418945913296404,
        "Eccentricity": 0.0,
        "Inclination(deg)": 60.0,
        "Latitude(deg)": -27.623039885737438,
        "Longitude(deg)": 47.501763361258526,
        "Mean Anomaly(deg)": -32.10719385453818,
        "RAAN(deg)": 164.99957995086024,
        "Satellite Name": "Test1 746",
        "Satellite Number": 746,
        "Semi-Major Axis(m)": 6980739.136638005,
        "Time(s)": 10
    }
]